IRIDIUM 26              
1 24903U 97043A   25253.54660472  .00000338  00000+0  10688-3 0  9991
2 24903  86.3897  74.7347 0002197  94.7253 265.4195 14.37203543469005
IRIDIUM 22              
1 24907U 97043E   25253.75618171  .00000295  00000+0  94695-4 0  9990
2 24907  86.3900  78.2629 0002253  89.9719 270.1736 14.36009888469056
DUMMY MASS 1            
1 24925U 97048A   25253.81248655  .00000330  00000+0  33600-4 0  9997
2 24925  86.3294  95.7259 0006091 181.9909 178.1293 14.87049323517854
DUMMY MASS 2            
1 24926U 97048B   25253.85620693  .00000317  00000+0  32431-4 0  9994
2 24926  86.3296  97.3304 0006346 197.0993 163.0020 14.86801028517634
IRIDIUM 29              
1 24944U 97051A   25253.67878365  .00000320  00000+0  10226-3 0  9990
2 24944  86.3917 108.0380 0002134  81.7750 278.3689 14.36530421465543
IRIDIUM 33              
1 24946U 97051C   25253.82452436  .00000209  00000+0  66548-4 0  9991
2 24946  86.3833 107.2441 0008761 145.8730 214.3032 14.34937312465026
IRIDIUM 28              
1 24948U 97051E   25253.66788006  .00000276  00000+0  85703-4 0  9998
2 24948  86.3920 105.5076 0002293 100.6848 259.4608 14.37438359466124
IRIDIUM 36              
1 24967U 97056C   25253.75698344  .00000317  00000+0  98935-4 0  9996
2 24967  86.3992 137.0849 0002361  88.4962 271.6507 14.37667620464518
